NORAD_CAT_ID,OBJECT_NAME,OBJECT_TYPE,EPOCH,MEAN_MOTION,ECCENTRICITY,INCLINATION,RA_OF_ASC_NODE,ARG_OF_PERICENTER,MEAN_ANOMALY,BSTAR,MEAN_MOTION_DOT,MEAN_MOTION_DDOT,TLE_LINE0,TLE_LINE1,TLE_LINE2,SEMIMAJOR_AXIS,PERIOD,APOGEE,PERIGEE,DECAYED
50828.0,STARLINK-3290,PAYLOAD,2023-04-13 10:51:44,15.09661598,0.0001472,53.215,253.1549,35.9622,324.147,0.0016163,0.00026117,0.0,0 STARLINK-3290,1 50828U 22001AB  23103.45260087  .00026117  00000-0  16163-2 0  9995,2 50828  53.2150 253.1549 0001472  35.9622 324.1470 15.09661598 71471,6915.37,95.386,538.253,536.217,0.0
50828.0,STARLINK-3290,PAYLOAD,2023-04-14 12:17:02,15.09728741,0.000156,53.2137,248.3928,36.2032,323.9066,0.0018605,0.0003018,0.0,0 STARLINK-3290,1 50828U 22001AB  23104.51183803  .00030180  00000-0  18605-2 0  9991,2 50828  53.2137 248.3928 0001560  36.2032 323.9066 15.09728741 70202,6915.165,95.381,538.109,535.951,0.0
50828.0,STARLINK-3290,PAYLOAD,2023-04-15 02:35:01,15.09702469,0.0001276,53.2137,245.7142,38.6074,321.501,-0.00023983,-4.196e-05,0.0,0 STARLINK-3290,1 50828U 22001AB  23105.10765378 -.00004196  00000-0 -23983-3 0  9996,2 50828  53.2137 245.7142 0001276  38.6074 321.5010 15.09702469 71727,6915.245,95.383,537.993,536.228,0.0
50828.0,STARLINK-3290,PAYLOAD,2023-04-15 13:42:22,15.09640595,7.44e-05,53.2145,243.6314,31.0954,329.0083,8.8571e-05,1.151e-05,0.0,0 STARLINK-3290,1 50828U 22001AB  23105.57109248  .00001151  00000-0  88571-4 0  9996,2 50828  53.2145 243.6314 0000744  31.0954 329.0083 15.09640595 70360,6915.434,95.387,537.814,536.785,0.0
50828.0,STARLINK-3290,PAYLOAD,2023-04-15 18:28:23,15.09625291,7.92e-05,53.2146,242.7388,35.5509,324.5537,0.00099316,0.00015897,0.0,0 STARLINK-3290,1 50828U 22001AB  23105.76971253  .00015897  00000-0  99316-3 0  9990,2 50828  53.2146 242.7388 0000792  35.5509 324.5537 15.09625291 71822,6915.481,95.388,537.894,536.798,0.0
50828.0,STARLINK-3290,PAYLOAD,2023-04-16 13:32:23,15.09677836,0.0001477,53.2146,239.17,26.5417,333.565,0.001996,0.00032364,0.0,0 STARLINK-3290,1 50828U 22001AB  23106.56416595  .00032364  00000-0  19960-2 0  9996,2 50828  53.2146 239.1700 0001477  26.5417 333.5650 15.09677836 71940,6915.321,95.385,538.207,536.164,0.0
50828.0,STARLINK-3290,PAYLOAD,2023-04-16 18:18:23,15.0969784,0.0001138,53.2149,238.2752,38.4612,321.6462,0.0022457,0.0003649,0.0,0 STARLINK-3290,1 50828U 22001AB  23106.76277210  .00036490  00000-0  22457-2 0  9996,2 50828  53.2149 238.2752 0001138  38.4612 321.6462 15.09697840 70544,6915.26,95.383,537.912,536.338,0.0
50828.0,STARLINK-3290,PAYLOAD,2023-04-17 13:22:24,15.09661414,0.000106,53.2155,234.7044,55.9691,304.1402,0.001567,0.00025309,0.0,0 STARLINK-3290,1 50828U 22001AB  23107.55722985  .00025309  00000-0  15670-2 0  9994,2 50828  53.2155 234.7044 0001060  55.9691 304.1402 15.09661414 72091,6915.371,95.386,537.969,536.503,0.0
50828.0,STARLINK-3290,PAYLOAD,2023-04-17 18:08:24,15.09669142,0.0001051,53.2153,233.8115,56.558,303.5513,0.0018649,0.00030202,0.0,0 STARLINK-3290,1 50828U 22001AB  23107.75584179  .00030202  00000-0  18649-2 0  9994,2 50828  53.2153 233.8115 0001051  56.5580 303.5513 15.09669142 70698,6915.347,95.385,537.939,536.485,0.0
50828.0,STARLINK-3290,PAYLOAD,2023-04-18 08:26:25,15.09651627,0.0001358,53.2169,231.1332,80.7206,279.394,0.0024022,0.00039018,0.0,0 STARLINK-3290,1 50828U 22001AB  23108.35168593  .00039018  00000-0  24022-2 0  9995,2 50828  53.2169 231.1332 0001358  80.7206 279.3940 15.09651627 70784,6915.401,95.386,538.205,536.327,0.0
50828.0,STARLINK-3290,PAYLOAD,2023-04-18 13:12:25,15.09667432,0.0001088,53.2171,230.2404,71.4751,288.636,0.0014973,0.0002417,0.0,0 STARLINK-3290,1 50828U 22001AB  23108.55029549  .00024170  00000-0  14973-2 0  9991,2 50828  53.2171 230.2404 0001088  71.4751 288.6360 15.09667432 72242,6915.352,95.385,537.97,536.465,0.0
50828.0,STARLINK-3290,PAYLOAD,2023-04-18 17:58:25,15.09675913,0.0001157,53.2172,229.3478,71.3304,288.7814,0.0015605,0.00025212,0.0,0 STARLINK-3290,1 50828U 22001AB  23108.74890596  .00025212  00000-0  15605-2 0  9991,2 50828  53.2172 229.3478 0001157  71.3304 288.7814 15.09675913 70845,6915.327,95.385,537.992,536.391,0.0
50828.0,STARLINK-3290,PAYLOAD,2023-04-19 08:16:25,15.09665926,0.0001155,53.2174,226.6701,91.7727,268.3398,0.0012463,0.00020057,0.0,0 STARLINK-3290,1 50828U 22001AB  23109.34474404  .00020057  00000-0  12463-2 0  9995,2 50828  53.2174 226.6701 0001155  91.7727 268.3398 15.09665926 70933,6915.357,95.385,538.021,536.423,0.0
50828.0,STARLINK-3290,PAYLOAD,2023-04-19 13:02:25,15.09674063,0.0001244,53.217,225.7779,84.0543,276.0591,0.0010822,0.00017375,0.0,0 STARLINK-3290,1 50828U 22001AB  23109.54335431  .00017375  00000-0  10822-2 0  9999,2 50828  53.2170 225.7779 0001244  84.0543 276.0591 15.09674063 70960,6915.332,95.385,538.057,536.337,0.0
50828.0,STARLINK-3290,PAYLOAD,2023-04-20 09:41:46,15.09665625,0.0001562,53.2183,221.9091,117.7208,242.3944,0.00077867,0.00012409,0.0,0 STARLINK-3290,1 50828U 22001AB  23110.40400705  .00012409  00000-0  77867-3 0  9999,2 50828  53.2183 221.9091 0001562 117.7208 242.3944 15.09665625 71091,6915.358,95.385,538.303,536.143,0.0
50828.0,STARLINK-3290,PAYLOAD,2023-04-20 16:03:06,15.09668939,0.0001425,53.2183,220.7185,116.7337,243.3801,0.00072699,0.00011566,0.0,0 STARLINK-3290,1 50828U 22001AB  23110.66882203  .00011566  00000-0  72699-3 0  9995,2 50828  53.2183 220.7185 0001425 116.7337 243.3801 15.09668939 72569,6915.348,95.385,538.198,536.227,0.0
50828.0,STARLINK-3290,PAYLOAD,2023-04-20 23:59:46,15.09657107,0.0001186,53.2175,219.2311,108.5004,251.6117,0.00032581,5.017e-05,0.0,0 STARLINK-3290,1 50828U 22001AB  23110.99984556  .00005017  00000-0  32581-3 0  9995,2 50828  53.2175 219.2311 0001186 108.5004 251.6117 15.09657107 72611,6915.384,95.386,538.069,536.429,0.0
50828.0,STARLINK-3290,PAYLOAD,2023-04-21 14:17:47,15.09656261,0.0001595,53.2182,216.5548,108.3402,251.7764,0.0006787,0.00010773,0.0,0 STARLINK-3290,1 50828U 22001AB  23111.59568656  .00010773  00000-0  67870-3 0  9995,2 50828  53.2182 216.5548 0001595 108.3402 251.7764 15.09656261 71275,6915.387,95.386,538.355,536.149,0.0
50828.0,STARLINK-3290,PAYLOAD,2023-04-21 15:53:07,15.09656371,0.0001557,53.2182,216.2576,110.8202,249.2957,0.00063344,0.00010034,0.0,0 STARLINK-3290,1 50828U 22001AB  23111.66189081  .00010034  00000-0  63344-3 0  9996,2 50828  53.2182 216.2576 0001557 110.8202 249.2957 15.09656371 71286,6915.386,95.386,538.328,536.174,0.0
50828.0,STARLINK-3290,PAYLOAD,2023-04-22 06:11:07,15.09663548,0.0001173,53.2167,213.5786,107.3322,252.7799,0.00038046,5.909e-05,0.0,0 STARLINK-3290,1 50828U 22001AB  23112.25772520  .00005909  00000-0  38046-3 0  9994,2 50828  53.2167 213.5786 0001173 107.3322 252.7799 15.09663548 71377,6915.364,95.385,538.04,536.418,0.0
50828.0,STARLINK-3290,PAYLOAD,2023-04-22 15:43:07,15.09671052,0.0001325,53.2169,211.7941,93.5226,266.5918,0.00053268,8.393e-05,0.0,0 STARLINK-3290,1 50828U 22001AB  23112.65494781  .00008393  00000-0  53268-3 0  9991,2 50828  53.2169 211.7941 0001325  93.5226 266.5918 15.09671052 71432,6915.341,95.385,538.123,536.29,0.0
50828.0,STARLINK-3290,PAYLOAD,2023-04-23 06:01:08,15.09654602,0.000129,53.2166,209.116,84.6545,275.4595,3.1297e-05,2.19e-06,0.0,0 STARLINK-3290,1 50828U 22001AB  23113.25079056  .00000219  00000-0  31297-4 0  9990,2 50828  53.2166 209.1160 0001290  84.6545 275.4595 15.09654602 72959,6915.392,95.386,538.149,536.365,0.0
50828.0,STARLINK-3290,PAYLOAD,2023-04-23 18:43:48,15.09666654,0.0001437,53.2155,206.7343,75.0639,285.0513,0.00055411,8.742e-05,0.0,0 STARLINK-3290,1 50828U 22001AB  23113.78042319  .00008742  00000-0  55411-3 0  9992,2 50828  53.2155 206.7343 0001437  75.0639 285.0513 15.09666654 71602,6915.355,95.385,538.214,536.226,0.0
50828.0,STARLINK-3290,PAYLOAD,2023-04-24 05:51:08,15.09706248,0.0001539,53.2174,204.6514,93.8325,266.2843,0.0018872,0.000306,0.0,0 STARLINK-3290,1 50828U 22001AB  23114.24384683  .00030600  00000-0  18872-2 0  9994,2 50828  53.2174 204.6514 0001539  93.8325 266.2843 15.09706248 71671,6915.234,95.383,538.163,536.035,0.0
50828.0,STARLINK-3290,PAYLOAD,2023-04-25 10:27:09,15.09662259,0.0001268,53.2174,199.2955,29.8739,330.2326,0.00024618,3.719e-05,0.0,0 STARLINK-3290,1 50828U 22001AB  23115.43552508  .00003719  00000-0  24618-3 0  9996,2 50828  53.2174 199.2955 0001268  29.8739 330.2326 15.09662259 73286,6915.368,95.386,538.11,536.356,0.0
50828.0,STARLINK-3290,PAYLOAD,2023-04-25 16:48:29,15.09639118,0.0001291,53.2164,198.1012,133.7141,226.3959,-0.0003887,-6.608e-05,0.0,0 STARLINK-3290,1 50828U 22001AB  23115.70034003 -.00006608  00000-0 -38870-3 0  9998,2 50828  53.2164 198.1012 0001291 133.7141 226.3959 15.09639118 73325,6915.439,95.387,538.197,536.411,0.0
50828.0,STARLINK-3290,PAYLOAD,2023-04-26 11:52:51,15.09150144,0.0001043,53.2158,194.5329,76.7559,283.355,-0.0091351,-0.00143995,0.0,0 STARLINK-3290,1 50828U 22001AB  23116.49503604 -.00143995  00000-0 -91351-2 0  9996,2 50828  53.2158 194.5329 0001043  76.7559 283.3550 15.09150144 72015,6916.933,95.418,539.519,538.076,0.0
50828.0,STARLINK-3290,PAYLOAD,2023-04-26 19:49:45,15.09082901,0.0001144,53.2169,193.0478,114.2718,245.8394,-0.0069484,-0.00109914,0.0,0 STARLINK-3290,1 50828U 22001AB  23116.82621686 -.00109914  00000-0 -69484-2 0  9999,2 50828  53.2169 193.0478 0001144 114.2718 245.8394 15.09082901 72062,6917.138,95.422,539.794,538.212,0.0
50828.0,STARLINK-3290,PAYLOAD,2023-04-27 11:43:32,15.09027085,0.0001303,53.2158,190.0751,94.3733,265.7408,-0.0046535,-0.00073965,0.0,0 STARLINK-3290,1 50828U 22001AB  23117.48857092 -.00073965  00000-0 -46535-2 0  9992,2 50828  53.2158 190.0751 0001303  94.3733 265.7408 15.09027085 72163,6917.309,95.426,540.075,538.272,0.0
50828.0,STARLINK-3290,PAYLOAD,2023-04-27 19:40:28,15.08920272,0.0001291,53.2168,188.5873,81.6875,278.4264,-0.0036437,-0.00057937,0.0,0 STARLINK-3290,1 50828U 22001AB  23117.81977482 -.00057937  00000-0 -36437-2 0  9996,2 50828  53.2168 188.5873 0001291  81.6875 278.4264 15.08920272 73647,6917.635,95.432,540.393,538.607,0.0
